{
  "type": "FeatureCollection",
  "features": [
    {
      "type": "Feature",
      "properties": {
        "norad_id": 41581,
        "name": "INTELSAT 31 (IS-31)",
        "group": "intelsat",
        "lat": -0.005601832069419436,
        "lon": 132.32114522613912,
        "alt_km": 35784.82296649322,
        "timestamp": "2025-12-14T09:36:22.702544+00:00",
        "meta_object_name": "INTELSAT 31 (IS-31)",
        "meta_object_id": "2016-035A",
        "meta_epoch": "2025-12-12T21:35:22.164576",
        "meta_mean_motion": 1.00271383,
        "meta_eccentricity": 0.00020554,
        "meta_inclination": 0.0183,
        "meta_ra_of_asc_node": 268.2699,
        "meta_arg_of_pericenter": 304.2994,
        "meta_mean_anomaly": 98.0553,
        "meta_ephemeris_type": 0,
        "meta_classification_type": "U",
        "meta_norad_cat_id": 41581,
        "meta_element_set_no": 999,
        "meta_rev_at_epoch": 3481,
        "meta_bstar": 0,
        "meta_mean_motion_dot": -1.38e-06,
        "meta_mean_motion_ddot": 0,
        "tle_line1": "1 41581U 16035A   25346.89956209 -.00000138  00000+0  00000+0 0  9993",
        "tle_line2": "2 41581   0.0183 268.2699 0002055 304.2994  98.0553  1.00271383 34819"
      },
      "geometry": {
        "type": "Point",
        "coordinates": [
          132.32114522613912,
          -0.005601832069419436
        ]
      }
    },
    {
      "type": "Feature",
      "properties": {
        "norad_id": 41747,
        "name": "INTELSAT 36 (IS-36)",
        "group": "intelsat",
        "lat": -0.02414395433539653,
        "lon": -64.11295234548231,
        "alt_km": 35780.925901410046,
        "timestamp": "2025-12-14T09:36:22.702555+00:00",
        "meta_object_name": "INTELSAT 36 (IS-36)",
        "meta_object_id": "2016-053A",
        "meta_epoch": "2025-12-13T12:03:51.221952",
        "meta_mean_motion": 1.00272804,
        "meta_eccentricity": 0.00013954,
        "meta_inclination": 0.0113,
        "meta_ra_of_asc_node": 0.4303,
        "meta_arg_of_pericenter": 329.8168,
        "meta_mean_anomaly": 1.6387,
        "meta_ephemeris_type": 0,
        "meta_classification_type": "U",
        "meta_norad_cat_id": 41747,
        "meta_element_set_no": 999,
        "meta_rev_at_epoch": 3408,
        "meta_bstar": 0,
        "meta_mean_motion_dot": -1e-07,
        "meta_mean_motion_ddot": 0,
        "tle_line1": "1 41747U 16053A   25347.50267618 -.00000010  00000+0  00000+0 0  9994",
        "tle_line2": "2 41747   0.0113   0.4303 0001395 329.8168   1.6387  1.00272804 34089"
      },
      "geometry": {
        "type": "Point",
        "coordinates": [
          -64.11295234548231,
          -0.02414395433539653
        ]
      }
    },
    {
      "type": "Feature",
      "properties": {
        "norad_id": 41945,
        "name": "INTELSAT 32E (IS-32E)",
        "group": "intelsat",
        "lat": 0.021742778785122183,
        "lon": -175.76881216134552,
        "alt_km": 35787.31450861572,
        "timestamp": "2025-12-14T09:36:22.702567+00:00",
        "meta_object_name": "INTELSAT 32E (IS-32E)",
        "meta_object_id": "2017-007B",
        "meta_epoch": "2025-12-12T11:33:44.679168",
        "meta_mean_motion": 1.00273861,
        "meta_eccentricity": 3.861e-05,
        "meta_inclination": 0.0354,
        "meta_ra_of_asc_node": 82.6036,
        "meta_arg_of_pericenter": 280.6351,
        "meta_mean_anomaly": 208.4399,
        "meta_ephemeris_type": 0,
        "meta_classification_type": "U",
        "meta_norad_cat_id": 41945,
        "meta_element_set_no": 999,
        "meta_rev_at_epoch": 3235,
        "meta_bstar": 0,
        "meta_mean_motion_dot": -2.58e-06,
        "meta_mean_motion_ddot": 0,
        "tle_line1": "1 41945U 17007B   25346.48176712 -.00000258  00000+0  00000+0 0  9998",
        "tle_line2": "2 41945   0.0354  82.6036 0000386 280.6351 208.4399  1.00273861 32350"
      },
      "geometry": {
        "type": "Point",
        "coordinates": [
          -175.76881216134552,
          0.021742778785122183
        ]
      }
    },
    {
      "type": "Feature",
      "properties": {
        "norad_id": 42818,
        "name": "INTELSAT 35E (IS-35E)",
        "group": "intelsat",
        "lat": -0.00891069994837452,
        "lon": -167.10884725792704,
        "alt_km": 35782.71583023115,
        "timestamp": "2025-12-14T09:36:22.702578+00:00",
        "meta_object_name": "INTELSAT 35E (IS-35E)",
        "meta_object_id": "2017-041A",
        "meta_epoch": "2025-12-13T09:51:41.378976",
        "meta_mean_motion": 1.00273219,
        "meta_eccentricity": 0.00020505,
        "meta_inclination": 0.0182,
        "meta_ra_of_asc_node": 13.0781,
        "meta_arg_of_pericenter": 249.2789,
        "meta_mean_anomaly": 293.4134,
        "meta_ephemeris_type": 0,
        "meta_classification_type": "U",
        "meta_norad_cat_id": 42818,
        "meta_element_set_no": 999,
        "meta_rev_at_epoch": 3095,
        "meta_bstar": 0,
        "meta_mean_motion_dot": -2.23e-06,
        "meta_mean_motion_ddot": 0,
        "tle_line1": "1 42818U 17041A   25347.41089559 -.00000223  00000+0  00000+0 0  9994",
        "tle_line2": "2 42818   0.0182  13.0781 0002050 249.2789 293.4134  1.00273219 30952"
      },
      "geometry": {
        "type": "Point",
        "coordinates": [
          -167.10884725792704,
          -0.00891069994837452
        ]
      }
    },
    {
      "type": "Feature",
      "properties": {
        "norad_id": 42950,
        "name": "INTELSAT 37E (IS-37E)",
        "group": "intelsat",
        "lat": -0.02237637355453066,
        "lon": -150.61478465722834,
        "alt_km": 35777.33327422301,
        "timestamp": "2025-12-14T09:36:22.702589+00:00",
        "meta_object_name": "INTELSAT 37E (IS-37E)",
        "meta_object_id": "2017-059A",
        "meta_epoch": "2025-12-13T15:04:33.915648",
        "meta_mean_motion": 1.00272198,
        "meta_eccentricity": 0.00030305,
        "meta_inclination": 0.0183,
        "meta_ra_of_asc_node": 2.7412,
        "meta_arg_of_pericenter": 254.191,
        "meta_mean_anomaly": 33.7726,
        "meta_ephemeris_type": 0,
        "meta_classification_type": "U",
        "meta_norad_cat_id": 42950,
        "meta_element_set_no": 999,
        "meta_rev_at_epoch": 3020,
        "meta_bstar": 0,
        "meta_mean_motion_dot": -1.25e-06,
        "meta_mean_motion_ddot": 0,
        "tle_line1": "1 42950U 17059A   25347.62817032 -.00000125  00000+0  00000+0 0  9999",
        "tle_line2": "2 42950   0.0183   2.7412 0003030 254.1910  33.7726  1.00272198 30201"
      },
      "geometry": {
        "type": "Point",
        "coordinates": [
          -150.61478465722834,
          -0.02237637355453066
        ]
      }
    },
    {
      "type": "Feature",
      "properties": {
        "norad_id": 43632,
        "name": "AZERSPACE 2 (IS-38)",
        "group": "intelsat",
        "lat": -0.03475281450753042,
        "lon": -87.48110578806573,
        "alt_km": 35780.39461255396,
        "timestamp": "2025-12-14T09:36:22.702601+00:00",
        "meta_object_name": "AZERSPACE 2 (IS-38)",
        "meta_object_id": "2018-074A",
        "meta_epoch": "2025-12-13T11:57:06.868224",
        "meta_mean_motion": 1.00271726,
        "meta_eccentricity": 0.00013299,
        "meta_inclination": 0.0179,
        "meta_ra_of_asc_node": 341.0856,
        "meta_arg_of_pericenter": 285.6516,
        "meta_mean_anomaly": 40.0836,
        "meta_ephemeris_type": 0,
        "meta_classification_type": "U",
        "meta_norad_cat_id": 43632,
        "meta_element_set_no": 999,
        "meta_rev_at_epoch": 2658,
        "meta_bstar": 0,
        "meta_mean_motion_dot": 1.51e-06,
        "meta_mean_motion_ddot": 0,
        "tle_line1": "1 43632U 18074A   25347.49799616  .00000151  00000+0  00000+0 0  9995",
        "tle_line2": "2 43632   0.0179 341.0856 0001329 285.6516  40.0836  1.00271726 26580"
      },
      "geometry": {
        "type": "Point",
        "coordinates": [
          -87.48110578806573,
          -0.03475281450753042
        ]
      }
    },
    {
      "type": "Feature",
      "properties": {
        "norad_id": 43633,
        "name": "HORIZONS-3E",
        "group": "intelsat",
        "lat": 0.010739909476147785,
        "lon": 36.398518997055,
        "alt_km": 35788.037004655416,
        "timestamp": "2025-12-14T09:36:22.702613+00:00",
        "meta_object_name": "HORIZONS-3E",
        "meta_object_id": "2018-074B",
        "meta_epoch": "2025-12-13T13:25:29.006400",
        "meta_mean_motion": 1.00268455,
        "meta_eccentricity": 0.00011041,
        "meta_inclination": 0.0436,
        "meta_ra_of_asc_node": 184.9145,
        "meta_arg_of_pericenter": 108.7106,
        "meta_mean_anomaly": 159.2276,
        "meta_ephemeris_type": 0,
        "meta_classification_type": "U",
        "meta_norad_cat_id": 43633,
        "meta_element_set_no": 999,
        "meta_rev_at_epoch": 2647,
        "meta_bstar": 0,
        "meta_mean_motion_dot": -1.6e-07,
        "meta_mean_motion_ddot": 0,
        "tle_line1": "1 43633U 18074B   25347.55936350 -.00000016  00000+0  00000+0 0  9992",
        "tle_line2": "2 43633   0.0436 184.9145 0001104 108.7106 159.2276  1.00268455 26477"
      },
      "geometry": {
        "type": "Point",
        "coordinates": [
          36.398518997055,
          0.010739909476147785
        ]
      }
    }
  ]
}